[{"OBJECT_NAME":"STARLINK-30041","OBJECT_ID":"2023-119M","EPOCH":"2026-03-09T22:00:01.999584","MEAN_MOTION":15.15940564,"ECCENTRICITY":0.00012576,"INCLINATION":43.0013,"RA_OF_ASC_NODE":79.6987,"ARG_OF_PERICENTER":273.3411,"MEAN_ANOMALY":241.7822,"EPHEMERIS_TYPE":0,"CLASSIFICATION_TYPE":"U","NORAD_CAT_ID":57613,"ELEMENT_SET_NO":999,"REV_AT_EPOCH":562,"BSTAR":0.06109031,"MEAN_MOTION_DOT":0.01292259,"MEAN_MOTION_DDOT":0},{"OBJECT_NAME":"CZ-6A DEB","OBJECT_ID":"2022-151CX","EPOCH":"2026-03-09T21:16:17.872608","MEAN_MOTION":15.11183333,"ECCENTRICITY":0.00647114,"INCLINATION":99.0278,"RA_OF_ASC_NODE":217.0514,"ARG_OF_PERICENTER":197.6419,"MEAN_ANOMALY":162.256,"EPHEMERIS_TYPE":0,"CLASSIFICATION_TYPE":"U","NORAD_CAT_ID":54352,"ELEMENT_SET_NO":999,"REV_AT_EPOCH":10537,"BSTAR":0.0059033487,"MEAN_MOTION_DOT":0.00105485,"MEAN_MOTION_DDOT":0}]
